INNOSAT 16 (RS92S7)     
1 64878U 25155C   25213.67548116  .00003890  00000+0  17730-3 0  9992
2 64878  97.4103 178.8135 0010319 221.0707 138.9753 15.21197763 32031
GEOSCAN 6 (RS92S6)      
1 64879U 25155D   25213.67254973  .00008907  00000+0  39446-3 0  9990
2 64879  97.4118 178.8213 0008106 213.4773 146.5952 15.21843682 32038
GEOSCAN 1 (RS92S1)      
1 64880U 25155E   25213.67248238  .00009426  00000+0  41703-3 0  9995
2 64880  97.4122 178.8221 0008052 213.9839 146.0882 15.21861829 32032
239ALFEROV (RS61S)      
1 64881U 25155F   25213.67205148  .00011396  00000+0  50193-3 0  9991
2 64881  97.4135 178.8241 0007864 213.5923 146.4815 15.21964076 32037
2025-155G               
1 64882U 25155G   25213.67172202  .00007793  00000+0  34393-3 0  9996
2 64882  97.4137 178.8106 0007309 213.1214 146.9565 15.22010465 32035
2025-155H               
1 64883U 25155H   25213.67165498  .00008160  00000+0  35982-3 0  9990
2 64883  97.4135 178.8102 0007260 213.0298 147.0486 15.22025200 32034
2025-155J               
1 64884U 25155J   25214.78920754  .00007715  00000+0  34017-3 0  9991
2 64884  97.4130 179.9123 0007333 209.3834 150.6991 15.22044192 32201
2025-155K               
1 64885U 25155K   25214.85444236  .00016057  00000+0  69976-3 0  9997
2 64885  97.4095 179.9826 0009076 196.6030 163.4911 15.22235500 32214
2025-155L               
1 64886U 25155L   25214.78863093  .00016112  00000+0  70217-3 0  9998
2 64886  97.4096 179.9187 0008819 196.8095 163.2851 15.22237299 32200
2025-155M               
1 64887U 25155M   25214.78861864  .00013201  00000+0  57646-3 0  9990
2 64887  97.4113 179.9210 0008510 197.6825 162.4117 15.22216534 32201
2025-155N               
1 64888U 25155N   25214.78846986  .00015804  00000+0  68830-3 0  9997
2 64888  97.4105 179.9195 0008704 196.6107 163.4845 15.22263959 32204
2025-155P               
1 64889U 25155P   25214.85438738  .00005021  00000+0  22197-3 0  9994
2 64889  97.4134 179.9838 0007046 204.1248 155.9659 15.22136338 32210
GEOSCAN 2 (RS92S2)      
1 64890U 25155Q   25214.78798880  .00008696  00000+0  38026-3 0  9994
2 64890  97.4116 179.9230 0007855 194.3509 165.7506 15.22288391 32202
2025-155R               
1 64891U 25155R   25214.85325370  .00010473  00000+0  45601-3 0  9996
2 64891  97.4128 179.9839 0006384 213.9591 146.1238 15.22388516 32212
2025-155S               
1 64892U 25155S   25214.85322178  .00010695  00000+0  46552-3 0  9992
2 64892  97.4130 179.9844 0006415 215.0350 145.0465 15.22394978 32212
GEOSCAN 3 (RS92S3)      
1 64893U 25155T   25214.85279073  .00011071  00000+0  48057-3 0  9999
2 64893  97.4128 179.9848 0006184 217.1173 142.9637 15.22477625 32211
INNOSAT 3 (RS92S0)      
1 64894U 25155U   25214.85245988  .00012674  00000+0  54843-3 0  9998
2 64894  97.4128 179.9854 0006125 219.2304 140.8489 15.22553299 32217
2025-155V               
1 64895U 25155V   25214.78927398  .00007970  00000+0  35121-3 0  9994
2 64895  97.4138 179.9129 0007400 208.2248 151.8589 15.22052871 32196
MICROCARB               
1 64899U 25156A   25215.17573862 -.00001002  00000+0 -15226-3 0  9992
2 64899  98.0151 292.5733 0016075 204.1017 155.9439 14.71742181  1189
CO3D 3                  
1 64900U 25156B   25215.17094454  .00007831  00000+0  34088-3 0  9991
2 64900  97.4545 293.2998 0003651 161.9331 198.2036 15.22501188  1212
CO3D 4                  
1 64901U 25156C   25214.44840826  .00006835  00000+0  29806-3 0  9998
2 64901  97.4571 292.5878 0003862 160.2730 199.8656 15.22487116  1107
CO3D 2                  
1 64902U 25156D   25215.17258878 -.00240912  00000+0 -10886-1 0  9994
2 64902  97.4476 293.2921 0004725 160.1588 199.9833 15.22045559  1219
CO3D 1                  
1 64903U 25156E   25215.30456784  .00007446  00000+0  32927-3 0  9999
2 64903  97.4584 293.4383 0007801 153.9832 206.1797 15.21957113  1233
STARLINK-34647          
1 64904U 25157A   25215.50002315 -.01073095  00000+0 -42213-2 0  9994
2 64904  53.1545 295.2380 0000785  82.7443 223.1238 15.88634723  2487
STARLINK-34273          
1 64905U 25157B   25215.50002315 -.01083338  00000+0 -42574-2 0  9996
2 64905  53.1547 295.2338 0000549  82.8558 224.9891 15.88680847  2492
STARLINK-34713          
1 64906U 25157C   25215.50002315 -.01090580  00000+0 -42786-2 0  9999
2 64906  53.1546 295.2290 0000707  72.1144 237.9973 15.88729814  2435
STARLINK-34712          
1 64907U 25157D   25215.50002315 -.01095974  00000+0 -42927-2 0  9999
2 64907  53.1544 295.2241 0000627  68.8081 243.6742 15.88775860  2488
STARLINK-34702          
1 64908U 25157E   25215.50002315 -.01105881  00000+0 -43261-2 0  9991
2 64908  53.1545 295.2193 0000525  70.8165 243.9503 15.88825050  2484
STARLINK-34687          
1 64909U 25157F   25215.50002315 -.01111687  00000+0 -43415-2 0  9994
2 64909  53.1543 295.2141 0000564  82.7548 234.4557 15.88871595  2430
STARLINK-34642          
1 64910U 25157G   25215.50002315 -.01121320  00000+0 -43728-2 0  9998
2 64910  53.1545 295.2091 0000677  76.0747 243.4878 15.88921758  2488
STARLINK-34718          
1 64911U 25157H   25215.50002315 -.01131351  00000+0 -44057-2 0  9990
2 64911  53.1545 295.2041 0000670  74.8567 247.1527 15.88973528  2487
STARLINK-34711          
1 64912U 25157J   25215.50002315 -.01137231  00000+0 -44217-2 0  9992
2 64912  53.1544 295.1992 0000734  87.1762 237.1574 15.89017499  2484
STARLINK-34659          
1 64913U 25157K   25215.50002315 -.01147404  00000+0 -44562-2 0  9999
2 64913  53.1543 295.1941 0000491  76.0173 250.6892 15.89066804  2433
STARLINK-34571          
1 64914U 25157L   25215.50002315 -.01160354  00000+0 -45016-2 0  9994
2 64914  53.1544 295.1889 0000564  74.5220 254.7194 15.89118458  2436
STARLINK-34636          
1 64915U 25157M   25215.50002315 -.01163301  00000+0 -45044-2 0  9991
2 64915  53.1543 295.1841 0000579  83.5624 247.9580 15.89162930  2480
STARLINK-34695          
1 64916U 25157N   25215.50002315 -.01169743  00000+0 -45222-2 0  9996
2 64916  53.1544 295.1796 0000578  77.3780 256.2414 15.89209410  2488
STARLINK-34653          
1 64917U 25157P   25215.50002315 -.01182063  00000+0 -45650-2 0  9992
2 64917  53.1545 295.1743 0000537  85.7419 250.3650 15.89260355  2436
STARLINK-34611          
1 64918U 25157Q   25215.50002315 -.01189571  00000+0 -45862-2 0  9999
2 64918  53.1544 295.1695 0000685  78.5394 259.8658 15.89310064  2488
STARLINK-34599          
1 64919U 25157R   25215.50002315 -.01441520  60525-3 -38861-2 0  9998
2 64919  53.1546 294.9784 0000506  65.3557   5.4366 15.93734278  2487
STARLINK-34069          
1 64920U 25157S   25215.50002315 -.01194761  00000+0 -45983-2 0  9993
2 64920  53.1546 295.1638 0000643  73.1425 267.8947 15.89356750  2482
STARLINK-34699          
1 64921U 25157T   25215.50002315 -.01224756  00000+0 -46165-2 0  9995
2 64921  53.1544 295.1597 0000590  88.5555 254.3895 15.89401585  2480
STARLINK-34700          
1 64922U 25157U   25215.50002315 -.01227825  00000+0 -46185-2 0  9998
2 64922  53.1544 295.1546 0000682  91.8863 253.5211 15.89447235  2436
STARLINK-34643          
1 64923U 25157V   25215.50002315 -.01247751  00000+0 -46797-2 0  9998
2 64923  53.1545 295.1439 0000456  79.2955 271.1668 15.89546146  2488
STARLINK-34199          
1 64924U 25157W   25215.50002315 -.01229479  00000+0 -46156-2 0  9995
2 64924  53.1545 295.1495 0000560  80.8958 266.9481 15.89490333  2434
STARLINK-34579          
1 64925U 25157X   25215.50002315 -.01258509  00000+0 -47127-2 0  9991
2 64925  53.1542 295.1399 0000624  86.0219 266.4488 15.89596149  2483
STARLINK-34543          
1 64926U 25157Y   25215.50002315 -.01283152  00000+0 -47728-2 0  9991
2 64926  53.1553 295.1246 0000611  97.8341 262.7572 15.89776186  2438
STARLINK-34661          
1 64927U 25157Z   25215.50002315 -.01434721  60034-3 -38572-2 0  9996
2 64927  53.1545 294.9697 0000754  50.8231  24.0610 15.93784530  2217
STARLINK-34248          
1 64928U 25157AA  25215.50002315 -.01263935  00000+0 -47251-2 0  9991
2 64928  53.1544 295.1359 0000589  98.9716 255.4464 15.89639942  2489
STARLINK-34290          
1 64929U 25157AB  25215.50002315 -.01271992  00000+0 -47477-2 0  9994
2 64929  53.1543 295.1312 0000539  93.4501 263.1716 15.89687277  2485
STARLINK-34220          
1 64930U 25157AC  25215.50002315 -.01462415  62209-3 -39193-2 0  9997
2 64930  53.1544 294.9664 0000611  63.8440  12.6774 15.93848692  2373
STARLINK-34715          
1 64931U 25157AD  25215.50002315 -.01267219  00000+0 -47169-2 0  9992
2 64931  53.1542 295.1263 0000529  93.4958 265.4816 15.89731574  2483
STARLINK-34705          
1 64932U 25158A   25215.50002315 -.01462580  00000+0 -78974-2 0  9990
2 64932  97.5970  76.7901 0001646  74.0171 210.5644 15.82679782  2380
STARLINK-34737          
1 64933U 25158B   25215.50002315 -.01470872  00000+0 -79331-2 0  9992
2 64933  97.5969  76.7907 0001562  74.9147 211.4363 15.82720364  2385
STARLINK-34775          
1 64934U 25158C   25215.50002315 -.01493414  00000+0 -80654-2 0  9990
2 64934  97.5968  76.7916 0001636  73.2041 215.1760 15.82733072  2384
STARLINK-34726          
1 64935U 25158D   25215.50002315 -.01504991  00000+0 -81222-2 0  9996
2 64935  97.5968  76.7922 0001628  78.4997 211.6991 15.82769638  2328
STARLINK-34529          
1 64936U 25158E   25215.50002315 -.01517420  00000+0 -81955-2 0  9991
2 64936  97.5970  76.7935 0001642  71.4952 220.7158 15.82776534  2381
STARLINK-34743          
1 64937U 25158F   25215.50002315 -.01528744  00000+0 -82556-2 0  9991
2 64937  97.5968  76.7942 0001695  72.7718 221.3436 15.82799772  2384
STARLINK-34730          
1 64938U 25158G   25215.50002315 -.01538266  00000+0 -83067-2 0  9990
2 64938  97.5970  76.7950 0001680  73.7489 222.2917 15.82818594  2329
STARLINK-34714          
1 64939U 25158H   25215.50002315 -.01553222  00000+0 -83932-2 0  9991
2 64939  97.5970  76.7958 0001599  79.0217 218.9986 15.82833201  2167
